     2.100          NAVIGATION                              RINEX VERSION / TYPE
fic2rin                                 05/01/2010 00:10:31 PGM / RUN BY / DATE
                                                            END OF HEADER
10 10  4 30  1 59 44.0 -.414941459894D-04 -.909494701773D-12  .000000000000D+00
     .220000000000D+02  .133906250000D+03  .447482925174D-08  .211803484719D+01
     .691600143909D-05  .916984002106D-02  .682659447193D-05  .515350189018D+04
     .439184000000D+06 -.189989805222D-06  .938197008997D+00 -.819563865662D-07
     .953829636021D+00  .244312500000D+03  .666194622914D+00 -.812283834882D-08
     .267868300647D-09  .100000000000D+01  .158100000000D+04  .000000000000D+00
     .240000000000D+01  .000000000000D+00 -.279396772385D-08  .220000000000D+02
     .432006000000D+06  .400000000000D+01
13 10  4 30  1 59 44.0  .304901041090D-03 -.341060513165D-12  .000000000000D+00
     .100000000000D+02 -.284062500000D+02  .405159733672D-08  .142406024967D+01
    -.153295695782D-05  .442903547082D-02  .648200511932D-06  .515355228615D+04
     .439184000000D+06  .000000000000D+00  .203150345639D+01 -.391155481339D-07
     .992790076160D+00  .383000000000D+03  .167459108866D+01 -.816819738106D-08
     .000000000000D+00  .100000000000D+01  .158100000000D+04  .000000000000D+00
     .240000000000D+01  .000000000000D+00 -.107102096081D-07  .100000000000D+02
     .432006000000D+06  .400000000000D+01
19 10  4 30  1 59 44.0 -.315238721669D-04 -.261479726760D-11  .000000000000D+00
     .100000000000D+01 -.136250000000D+02  .507664003386D-08  .105191991122D+01
    -.594183802605D-06  .642080919351D-02  .473856925964D-05  .515371675301D+04
     .439184000000D+06  .894069671631D-07 -.110076813127D+01  .782310962677D-07
     .957428952850D+00  .280218750000D+03 -.167553745183D+00 -.822427114533D-08
    -.337871216549D-09  .100000000000D+01  .158100000000D+04  .000000000000D+00
     .240000000000D+01  .000000000000D+00 -.149011611938D-07  .100000000000D+01
     .432006000000D+06  .400000000000D+01
 1 10  4 30  2  0  0.0 -.114225316793D-03 -.409272615798D-11  .000000000000D+00
     .130000000000D+03 -.103125000000D+01  .573559605345D-08  .256893849606D+01
    -.875443220139D-07  .458733842243D-02  .103916972876D-04  .515479316711D+04
     .439200000000D+06 -.428408384323D-07 -.223090312438D+01 -.409781932831D-07
     .964359626729D+00  .180000000000D+03  .860276965509D+00 -.771817863598D-08
     .635740766869D-09  .100000000000D+01  .158100000000D+04  .000000000000D+00
     .240000000000D+01  .630000000000D+02 -.190921127796D-07  .130000000000D+03
     .432006000000D+06  .400000000000D+01
 2 10  4 30  2  0  0.0  .251186080277D-03  .352429196937D-11  .000000000000D+00
     .180000000000D+02  .101250000000D+02  .486591697069D-08  .495351020741D+00
     .463798642159D-06  .951697025448D-02  .101067125797D-04  .515357557869D+04
     .439200000000D+06  .210478901863D-06 -.146842521975D+00  .577419996262D-07
     .940381030119D+00  .173968750000D+03  .304716457582D+01 -.816748306560D-08
    -.591810365563D-09  .100000000000D+01  .158100000000D+04  .000000000000D+00
     .240000000000D+01  .000000000000D+00 -.172294676304D-07  .180000000000D+02
     .432006000000D+06  .400000000000D+01
 3 10  4 30  2  0  0.0  .548527576029D-03  .500222085975D-11  .000000000000D+00
     .550000000000D+02  .281250000000D+00  .590703176587D-08  .426946503030D+00
     .290572643280D-06  .130119171226D-01  .466033816338D-05  .515369351196D+04
     .439200000000D+06 -.135973095894D-06 -.129897839713D+01  .130385160446D-06
     .926678553801D+00  .270656250000D+03  .990661773199D+00 -.884322549870D-08
    -.123576576032D-09  .100000000000D+01  .158100000000D+04  .000000000000D+00
     .340000000000D+01  .000000000000D+00 -.465661287308D-08  .550000000000D+02
     .432006000000D+06  .400000000000D+01
 4 10  4 30  2  0  0.0  .711907632649D-04  .841282599140D-11  .000000000000D+00
     .300000000000D+02  .971875000000D+01  .471948229967D-08 -.269422026367D+01
     .454485416412D-06  .908546475694D-02  .109039247036D-04  .515368248940D+04
     .439200000000D+06 -.111758708954D-07 -.128954840378D+00 -.726431608200D-07
     .939533898147D+00  .158281250000D+03  .603624801819D+00 -.788389982464D-08
    -.517878714584D-09  .100000000000D+01  .158100000000D+04  .000000000000D+00
     .240000000000D+01  .000000000000D+00 -.605359673500D-08  .300000000000D+02
     .432006000000D+06  .400000000000D+01
 5 10  4 30  2  0  0.0 -.213691964746D-05 -.454747350886D-12  .000000000000D+00
     .107000000000D+03  .129406250000D+03  .434589530970D-08  .205619971379D+01
     .674091279507D-05  .186313292943D-02  .690296292305D-05  .515370098305D+04
     .439200000000D+06 -.186264514923D-08  .912277876424D+00 -.149011611938D-07
     .958821365593D+00  .246093750000D+03  .325925218791D+00 -.805069248651D-08
     .226438003480D-09  .100000000000D+01  .158100000000D+04  .000000000000D+00
     .340000000000D+01  .000000000000D+00 -.884756445885D-08  .107000000000D+03
     .432006000000D+06  .400000000000D+01
 6 10  4 30  2  0  0.0  .653412658721D-03 -.103455022327D-10  .000000000000D+00
     .920000000000D+02 -.618750000000D+01  .564844956631D-08  .265962754686D+01
    -.124797224998D-06  .624245568179D-02  .445544719696D-05  .515365230179D+04
     .439200000000D+06  .143423676491D-06 -.122855349592D+01  .502914190292D-07
     .934044660858D+00  .276000000000D+03 -.108703245842D+01 -.844499462507D-08
    -.157863718515D-09  .100000000000D+01  .158100000000D+04  .000000000000D+00
     .240000000000D+01  .000000000000D+00 -.512227416039D-08  .920000000000D+02
     .432006000000D+06  .400000000000D+01
 7 10  4 30  2  0  0.0 -.149011611938D-07 -.454747350886D-12  .000000000000D+00
     .350000000000D+02 -.126125000000D+03  .414302971667D-08 -.108668222120D+01
    -.665709376335D-05  .341317569837D-02  .840425491333D-05  .515372087669D+04
     .439200000000D+06  .279396772385D-07  .301339078446D+01 -.447034835815D-07
     .971670176546D+00  .222562500000D+03  .304146226013D+01 -.784425531615D-08
    -.310727228751D-10  .100000000000D+01  .158100000000D+04  .000000000000D+00
     .240000000000D+01  .000000000000D+00 -.102445483208D-07  .350000000000D+02
     .432006000000D+06  .400000000000D+01
 8 10  4 30  2  0  0.0  .516185536981D-05  .227373675443D-12  .000000000000D+00
     .600000000000D+01 -.122656250000D+03  .363479426091D-08 -.171898472024D+01
    -.664405524731D-05  .110291285673D-01  .949762761593D-05  .515370193291D+04
     .439200000000D+06  .223517417908D-07  .308069171335D+01 -.173225998878D-06
     .993055731843D+00  .214406250000D+03  .309716247540D+01 -.757817280417D-08
     .102504269714D-09  .100000000000D+01  .158100000000D+04  .000000000000D+00
     .340000000000D+01  .000000000000D+00 -.372529029846D-08  .262000000000D+03
     .432006000000D+06  .400000000000D+01
 9 10  4 30  2  0  0.0  .371364876628D-05  .216004991671D-11  .000000000000D+00
     .290000000000D+02 -.119531250000D+03  .396623663825D-08 -.181850378071D+01
    -.596418976784D-05  .169540478382D-01  .888854265213D-05  .515377297020D+04
     .439200000000D+06  .238418579102D-06  .298199611922D+01  .277534127235D-06
     .980773346678D+00  .213593750000D+03  .151160431918D+01 -.756531512574D-08
    -.914323799542D-10  .100000000000D+01  .158100000000D+04  .000000000000D+00
     .240000000000D+01  .000000000000D+00 -.558793544769D-08  .290000000000D+02
     .432006000000D+06  .400000000000D+01
11 10  4 30  2  0  0.0 -.595618039370D-04 -.227373675443D-11  .000000000000D+00
     .850000000000D+02 -.174687500000D+02  .613739850443D-08 -.120626465015D+01
    -.920146703720D-06  .105928404955D-01  .880099833012D-05  .515373477745D+04
     .439200000000D+06  .292435288429D-06 -.363920571873D+00  .614672899246D-07
     .888719031972D+00  .169593750000D+03  .801560333120D+00 -.868571893791D-08
    -.732887670570D-09  .100000000000D+01  .158100000000D+04  .000000000000D+00
     .240000000000D+01  .000000000000D+00 -.116415321827D-07  .850000000000D+02
     .432006000000D+06  .400000000000D+01
12 10  4 30  2  0  0.0 -.120904762298D-03  .432009983342D-11  .000000000000D+00
     .350000000000D+02  .293750000000D+01  .439839749662D-08 -.108012251555D+01
     .227242708206D-06  .354758300819D-02  .990740954876D-05  .515370170975D+04
     .439200000000D+06 -.577419996262D-07 -.221668253075D+01 -.521540641785D-07
     .970427143831D+00  .194562500000D+03 -.477863094676D+00 -.780318217672D-08
     .645384025692D-09  .100000000000D+01  .158100000000D+04  .000000000000D+00
     .240000000000D+01  .000000000000D+00 -.116415321827D-07  .350000000000D+02
     .432006000000D+06  .400000000000D+01
14 10  4 30  2  0  0.0  .399071723223D-04  .443378667114D-11  .000000000000D+00
     .670000000000D+02 -.318750000000D+02  .428232123301D-08  .123706643566D+01
    -.168383121490D-05  .497896503657D-02  .726431608200D-07  .515373396683D+04
     .439200000000D+06 -.143423676491D-06  .200986907335D+01  .540167093277D-07
     .986061308383D+00  .387343750000D+03 -.212501329120D+01 -.839463538454D-08
    -.167864135072D-10  .100000000000D+01  .158100000000D+04  .000000000000D+00
     .240000000000D+01  .000000000000D+00 -.884756445885D-08  .670000000000D+02
     .432006000000D+06  .400000000000D+01
15 10  4 30  2  0  0.0 -.279978848994D-03  .522959453519D-11  .000000000000D+00
     .340000000000D+02 -.161562500000D+02  .493306262472D-08  .113087511993D+01
    -.845640897751D-06  .247324199881D-02 -.102445483208D-06  .515375231934D+04
     .439200000000D+06  .540167093277D-07  .194665313255D+01  .000000000000D+00
     .953676421685D+00  .377187500000D+03 -.172265807242D+00 -.857357140938D-08
    -.150006248362D-10  .100000000000D+01  .158100000000D+04  .000000000000D+00
     .240000000000D+01  .000000000000D+00 -.977888703346D-08  .340000000000D+02
     .432006000000D+06  .400000000000D+01
